{
    "links": {
        "self": "http://www.neowsapp.com/rest/v1/neo/54054357?api_key=iIulBulltgU6a56xZRHN4H3l9WmuAYTsLGpBGhQ2"
    },
    "id": "54054357",
    "neo_reference_id": "54054357",
    "name": "(2020 RL7)",
    "designation": "2020 RL7",
    "nasa_jpl_url": "http://ssd.jpl.nasa.gov/sbdb.cgi?sstr=54054357",
    "absolute_magnitude_h": 24.573,
    "estimated_diameter": {
        "kilometers": {
            "estimated_diameter_min": 0.0323560112,
            "estimated_diameter_max": 0.0723502404
        },
        "meters": {
            "estimated_diameter_min": 32.3560111651,
            "estimated_diameter_max": 72.350240446
        },
        "miles": {
            "estimated_diameter_min": 0.020105087,
            "estimated_diameter_max": 0.0449563413
        },
        "feet": {
            "estimated_diameter_min": 106.154895671,
            "estimated_diameter_max": 237.3695628647
        }
    },
    "is_potentially_hazardous_asteroid": false,
    "close_approach_data": [
        {
            "close_approach_date": "2017-07-26",
            "close_approach_date_full": "2017-Jul-26 19:20",
            "epoch_date_close_approach": 1501096800000,
            "relative_velocity": {
                "kilometers_per_second": "13.672916891",
                "kilometers_per_hour": "49222.5008076032",
                "miles_per_hour": "30584.9477934799"
            },
            "miss_distance": {
                "astronomical": "0.4463959748",
                "lunar": "173.6480341972",
                "kilometers": "66779887.006653676",
                "miles": "41495097.6326896888"
            },
            "orbiting_body": "Earth"
        },
        {
            "close_approach_date": "2020-08-18",
            "close_approach_date_full": "2020-Aug-18 20:23",
            "epoch_date_close_approach": 1597782180000,
            "relative_velocity": {
                "kilometers_per_second": "4.6963187379",
                "kilometers_per_hour": "16906.747456261",
                "miles_per_hour": "10505.1953846973"
            },
            "miss_distance": {
                "astronomical": "0.1614730684",
                "lunar": "62.8130236076",
                "kilometers": "24156027.095004308",
                "miles": "15009859.2204151304"
            },
            "orbiting_body": "Earth"
        },
        {
            "close_approach_date": "2020-11-10",
            "close_approach_date_full": "2020-Nov-10 13:39",
            "epoch_date_close_approach": 1605015540000,
            "relative_velocity": {
                "kilometers_per_second": "6.8700506468",
                "kilometers_per_hour": "24732.1823285252",
                "miles_per_hour": "15367.616291855"
            },
            "miss_distance": {
                "astronomical": "0.0730270123",
                "lunar": "28.4075077847",
                "kilometers": "10924685.492543801",
                "miles": "6788284.7881184138"
            },
            "orbiting_body": "Mars"
        },
        {
            "close_approach_date": "2023-09-10",
            "close_approach_date_full": "2023-Sep-10 19:40",
            "epoch_date_close_approach": 1694374800000,
            "relative_velocity": {
                "kilometers_per_second": "9.8219880848",
                "kilometers_per_hour": "35359.1571051148",
                "miles_per_hour": "21970.8051467865"
            },
            "miss_distance": {
                "astronomical": "0.3192257961",
                "lunar": "124.1788346829",
                "kilometers": "47755499.145614307",
                "miles": "29673891.1724671566"
            },
            "orbiting_body": "Earth"
        }
    ],
    "orbital_data": {
        "orbit_id": "2",
        "orbit_determination_date": "2020-09-25 06:31:58",
        "first_observation_date": "2020-09-14",
        "last_observation_date": "2020-09-25",
        "data_arc_in_days": 11,
        "observations_used": 16,
        "orbit_uncertainty": "8",
        "minimum_orbit_intersection": ".144714",
        "jupiter_tisserand_invariant": "3.602",
        "epoch_osculation": "2459107.5",
        "eccentricity": ".457224381969009",
        "semi_major_axis": "2.104646321269718",
        "inclination": "3.399208251234931",
        "ascending_node_longitude": "43.35690428360719",
        "orbital_period": "1115.236856811571",
        "perihelion_distance": "1.142350707763823",
        "perihelion_argument": "288.2383820074944",
        "aphelion_distance": "3.066941934775613",
        "perihelion_time": "2459082.065959015277",
        "mean_anomaly": "8.210143610818015",
        "mean_motion": ".322801383222959",
        "equinox": "J2000",
        "orbit_class": {
            "orbit_class_type": "AMO",
            "orbit_class_description": "Near-Earth asteroid orbits similar to that of 1221 Amor",
            "orbit_class_range": "1.017 AU < q (perihelion) < 1.3 AU"
        }
    },
    "is_sentry_object": false
}